[{"OBJECT_NAME":"STARLINK-5881","OBJECT_ID":"2023-088G","EPOCH":"2026-03-09T10:38:00.754656","MEAN_MOTION":15.02534394,"ECCENTRICITY":0.00012216,"INCLINATION":43.0018,"RA_OF_ASC_NODE":108.7289,"ARG_OF_PERICENTER":269.8022,"MEAN_ANOMALY":90.268,"EPHEMERIS_TYPE":0,"CLASSIFICATION_TYPE":"U","NORAD_CAT_ID":57054,"ELEMENT_SET_NO":999,"REV_AT_EPOCH":15033,"BSTAR":-1.5253846e-5,"MEAN_MOTION_DOT":-4.1e-6,"MEAN_MOTION_DDOT":0},{"OBJECT_NAME":"OPS 6553","OBJECT_ID":"1982-041C","EPOCH":"2026-03-09T22:03:24.080544","MEAN_MOTION":15.05429153,"ECCENTRICITY":0.00081122,"INCLINATION":95.9935,"RA_OF_ASC_NODE":204.8515,"ARG_OF_PERICENTER":276.7874,"MEAN_ANOMALY":83.2434,"EPHEMERIS_TYPE":0,"CLASSIFICATION_TYPE":"U","NORAD_CAT_ID":13172,"ELEMENT_SET_NO":999,"REV_AT_EPOCH":10072,"BSTAR":0.00048705,"MEAN_MOTION_DOT":6.956e-5,"MEAN_MOTION_DDOT":0}]
